RegionID,SizeRank,RegionName,RegionType,StateName,DOM,City,ZipCode,County,Latitude,Longitude,GeoID,CountyFIPS,S2Id
394298,473,"Aberdeen, WA",msa,WA,51.0,ABERDEEN,99170,PIERCE,47.6783933746154,-117.37186487692314,5306390056,53063,06097338212157320367
394299,251,"Abilene, TX",msa,TX,60.0,ABILENE,76311,TAYLOR,33.920339879545445,-98.54643697045456,4848594215,48485,09679116401234704717
394304,83,"Akron, OH",msa,OH,24.0,AKRON,45362,SUMMIT,40.116589942857146,-84.61242405714286,3903701294,39037,09817824436034892991
394306,295,"Albany, GA",msa,GA,65.0,ALBANY,31707,DOUGHERTY,31.564073389655174,-84.1634571137931,1309593312,13095,09868083232745789563
394307,330,"Albany, OR",msa,OR,39.0,ALBANY,97350,CLATSOP,44.555662528571425,-122.93063740714285,4104391904,41043,06107003858569160703
394308,64,"Albany, NY",msa,NY,27.0,ALBANY,11770,ALBANY,40.82983666857143,-73.07775027584415,3610310000,36103,09937271675888165403
394312,62,"Albuquerque, NM",msa,NM,37.0,ALBUQUERQUE,87197,BERNALILLO,35.10743915681818,-106.61285108636368,3500190060,35001,09737473658300692351
394318,70,"Allentown, PA",msa,PA,28.0,ALLENTOWN,18195,LEHIGH,40.60002263703704,-75.50913001728397,4207779104,42077,09927123382339842937
394323,186,"Amarillo, TX",msa,TX,62.0,AMARILLO,76311,POTTER,33.920339879545445,-98.54643697045456,4848594215,48485,09679116401234704717
394327,139,"Anchorage, AK",msa,AK,31.0,ANCHORAGE,99520,ANCHORAGE BOROUGH,61.18856732786887,-149.78223080327868,0202003050,02020,06253413976646062507
394332,148,"Ann Arbor, MI",msa,MI,32.0,ANN ARBOR,48415,WASHTENAW,43.02001208358209,-83.69157919328353,2604982380,26049,09809827444964059151
394340,404,"Ashtabula, OH",msa,OH,37.0,ASHTABULA,45362,LAWRENCE,40.116589942857146,-84.61242405714286,3903701294,39037,09817824436034892991
394346,217,"Athens, GA",msa,GA,65.0,ATHENS,31561,CLARKE,31.202444219230777,-81.45611414615385,1312792658,13127,09864245599384734075
394347,9,"Atlanta, GA",msa,GA,57.0,ATLANTA,30398,FULTON,33.82822811529052,-84.39392406116205,1312190144,13121,09868800341785717423
394348,180,"Atlantic City, NJ",msa,NJ,44.0,ATLANTIC CITY,8404,ATLANTIC,39.41227421486485,-74.55627521081085,3400102080,34001,09926189065367007983
394351,253,"Auburn, AL",msa,AL,52.0,AUBURN,35062,JEFFERSON,33.51757640264549,-86.81785523068787,0107392745,01073,09838425136801829203
394353,339,"Augusta, ME",msa,ME,36.0,AUGUSTA,4050,KENNEBEC,43.751804898765435,-70.30688758641975,2300541067,23005,05526626408279006997
394355,29,"Austin, TX",msa,TX,86.0,AUSTIN,76311,TRAVIS,33.920339879545445,-98.54643697045456,4848594215,48485,09679116401234704717
394357,63,"Bakersfield, CA",msa,CA,40.0,BAKERSFIELD,96119,KERN,40.4352536,-120.5781354111111,0603591820,06035,09267728001823725801
394358,20,"Baltimore, MD",msa,MD,27.0,BALTIMORE,21281,BALTIMORE CITY,39.31087127185932,-76.61825691859293,2451090000,24510,09928190601918416529
394359,288,"Bangor, ME",msa,ME,41.0,BANGOR,4402,PENOBSCOT,44.99074795000001,-68.78687709999997,2301902795,23019,05525853201183457231
394361,202,"Barnstable Town, MA",msa,MA,40.0,BARNSTABLE TOWN,1745,BARNSTABLE,42.31046940314135,-71.81702707853398,2502763165,25027,09936074871061153977
394367,66,"Baton Rouge, LA",msa,LA,69.0,BATON ROUGE,71455,EAST BATON ROUGE PARISH,31.757420736363642,-93.09047580000001,2206995512,22069,09669366232422374265
394368,318,"Battle Creek, MI",msa,MI,29.0,BATTLE CREEK,48415,CALHOUN,43.02001208358209,-83.69157919328353,2604982380,26049,09809827444964059151
394369,380,"Bay City, MI",msa,MI,29.0,BAY CITY,48415,BAY,43.02001208358209,-83.69157919328353,2604982380,26049,09809827444964059151
394372,140,"Beaumont, TX",msa,TX,68.0,BEAUMONT,76311,JEFFERSON,33.920339879545445,-98.54643697045456,4848594215,48485,09679116401234704717
394378,205,"Bellingham, WA",msa,WA,38.0,BELLINGHAM,98226,WHATCOM,48.8213285074074,-122.4823648481481,5307390176,53073,06090479921325187179
394380,232,"Bend, OR",msa,OR,70.0,BEND,97350,DESCHUTES,44.555662528571425,-122.93063740714285,4104391904,41043,06107003858569160703
394386,239,"Billings, MT",msa,MT,48.0,BILLINGS,59106,YELLOWSTONE,45.79515004444444,-108.52883605555554,3011190315,30111,06001182208944053531
394387,195,"Binghamton, NY",msa,NY,34.0,BINGHAMTON,11770,BROOME,40.82983666857143,-73.07775027584415,3610310000,36103,09937271675888165403
394388,51,"Birmingham, AL",msa,AL,44.0,BIRMINGHAM,35233,JEFFERSON,33.51757640264549,-86.81785523068787,0107390324,01073,09838425136801829203
394390,324,"Bismarck, ND",msa,ND,44.0,BISMARCK,58501,BURLEIGH,46.83925375263159,-100.73973671052632,3801502780,38015,05969383256452834197
394399,79,"Boise City, ID",msa,ID,44.0,BOISE CITY,83720,ADA,43.61125538062015,-116.30811806124032,1600190345,16001,06101909643417168217
394404,10,"Boston, MA",msa,MA,26.0,BOSTON,2132,SUFFOLK,42.204773603246764,-71.1432059396104,2502116495,25021,09936209396979585163
394405,156,"Boulder, CO",msa,CO,60.0,BOULDER,80928,BOULDER,38.87058524131737,-104.7615229251497,0804193420,08041,09733200158192746493
394406,248,"Bowling Green, KY",msa,KY,52.0,BOWLING GREEN,42261,WARREN,37.209876533333336,-86.69381953333334,2103191888,21031,09828413117708541911
394407,356,"Bozeman, MT",msa,MT,61.0,BOZEMAN,59715,GALLATIN,45.66053294615384,-111.12048963076926,3003190189,30031,06000289439272045225
394410,408,"Brainerd, MN",msa,MN,43.0,BRAINERD,55111,STEARNS,44.96948295683893,-93.35278817568387,2705321965,27053,05959164719943605309
394412,181,"Bremerton, WA",msa,WA,28.0,BREMERTON,99170,KITSAP,47.6783933746154,-117.37186487692314,5306390056,53063,06097338212157320367
394415,60,"Bridgeport, CT",msa,CT,29.0,BRIDGEPORT,6610,FAIRFIELD,41.199904253164554,-73.20306839999999,0912008070,09120,09937208576690140415
394421,130,"Brownsville, TX",msa,TX,83.0,BROWNSVILLE,76311,RUSK,33.920339879545445,-98.54643697045456,4848594215,48485,09679116401234704717
394423,360,"Brunswick, GA",msa,GA,72.0,BRUNSWICK,31561,GLYNN,31.202444219230777,-81.45611414615385,1312792658,13127,09864245599384734075
394425,50,"Buffalo, NY",msa,NY,27.0,BUFFALO,14219,ERIE,42.885669362835266,-78.79885911954025,3602931654,36029,09931296661408524531
394428,260,"Burlington, NC",msa,NC,40.0,BURLINGTON,27215,CARTERET,36.06729564594594,-79.4144543027027,3700193292,37001,09823242980124168383
394429,206,"Burlington, VT",msa,VT,28.0,BURLINGTON,5402,CHITTENDEN,44.478601,-73.15632134390245,5000710675,50007,05533369369377685557
394439,137,"Canton, OH",msa,OH,27.0,CANTON,45362,STARK,40.116589942857146,-84.61242405714286,3903701294,39037,09817824436034892991
394440,78,"Cape Coral, FL",msa,FL,103.0,CAPE CORAL,32578,LEE,30.529779663265312,-86.56640536734693,1209190962,12091,09840764477153325533
394441,405,"Cape Girardeau, MO",msa,MO,50.0,CAPE GIRARDEAU,63782,CAPE GIRARDEAU,37.3184774,-90.02106206666667,2901777956,29017,09788574062815838603
394442,321,"Carbondale, IL",msa,IL,42.0,CARBONDALE,62087,SAINT CLAIR,38.8045463873016,-90.03689196031745,1711914260,17119,09790640451152697525
394447,179,"Cedar Rapids, IA",msa,IA,31.0,CEDAR RAPIDS,50223,LINN,42.04554242857143,-93.90724324285715,1901591629,19015,09794701560568753107
394453,277,"Chambersburg, PA",msa,PA,30.0,CHAMBERSBURG,17222,FRANKLIN,39.855155644444444,-77.14083795185186,4200127320,42001,09928278181714510253
394454,209,"Champaign, IL",msa,IL,30.0,CHAMPAIGN,62087,CHAMPAIGN,38.8045463873016,-90.03689196031745,1711914260,17119,09790640451152697525
394455,192,"Charleston, WV",msa,WV,38.0,CHARLESTON,25360,KANAWHA,,,,,
394457,75,"Charleston, SC",msa,SC,46.0,CHARLESTON,29422,CHARLESTON,32.81398247979798,-79.97804781515153,4501991664,45019,09871462714693797209
394458,23,"Charlotte, NC",msa,NC,42.0,CHARLOTTE,28241,MECKLENBURG,35.22340489081966,-80.82393798622952,3711993268,37119,09824215677000845353
394459,212,"Charlottesville, VA",msa,VA,39.0,CHARLOTTESVILLE,22911,ALBEMARLE,38.05527415517241,-78.51661559999998,5100395311,51003,09922423563439403525
394460,102,"Chattanooga, TN",msa,TN,46.0,CHATTANOOGA,37414,HAMILTON,35.0926593045977,-85.2182832896552,4706591396,47065,09826961839187956691
394462,391,"Cheyenne, WY",msa,WY,38.0,CHEYENNE,82930,LARAMIE,41.294638133333336,-110.72237195000001,5604191155,56041,09750703518848954045
394463,3,"Chicago, IL",msa,IL,32.0,CHICAGO,60693,COOK,41.86211180623121,-87.73999364534535,1703114000,17031,09803829520099764787
394464,215,"Chico, CA",msa,CA,48.0,CHICO,96119,KERN,40.4352536,-120.5781354111111,0603591820,06035,09267728001823725801
394466,28,"Cincinnati, OH",msa,OH,26.0,CINCINNATI,45362,HAMILTON,40.116589942857146,-84.61242405714286,3903701294,39037,09817824436034892991
394471,163,"Clarksville, TN",msa,TN,48.0,CLARKSVILLE,37044,MONTGOMERY,36.551284176086945,-87.35497698260869,4712590886,47125,09828218074598527881
394472,492,"Clearlake, CA",msa,CA,86.0,CLEARLAKE,96119,KERN,40.4352536,-120.5781354111111,0603591820,06035,09267728001823725801
394474,334,"Cleveland, TN",msa,TN,48.0,CLEVELAND,37764,BRADLEY,36.06058395,-83.44673107499999,4708991040,47089,09825714100056166173
394475,35,"Cleveland, OH",msa,OH,24.0,CLEVELAND,45362,CUYAHOGA,40.116589942857146,-84.61242405714286,3903701294,39037,09817824436034892991
394480,262,"Coeur d'Alene, ID",msa,ID,69.0,COEUR D'ALENE,83622,FREMONT,43.891115000000006,-115.7866925,1601591173,16015,06102140723239642545
394483,189,"College Station, TX",msa,TX,65.0,COLLEGE STATION,76311,BRAZOS,33.920339879545445,-98.54643697045456,4848594215,48485,09679116401234704717
394484,80,"Colorado Springs, CO",msa,CO,55.0,COLORADO SPRINGS,80928,EL PASO,38.87058524131737,-104.7615229251497,0804193420,08041,09733200158192746493
394485,219,"Columbia, MO",msa,MO,32.0,COLUMBIA,63782,BOONE,37.3184774,-90.02106206666667,2901777956,29017,09788574062815838603
394486,72,"Columbia, SC",msa,SC,43.0,COLUMBIA,29225,RICHLAND,34.05399262040817,-80.99252887959187,4507990702,45079,09869820580335132855
394488,158,"Columbus, GA",msa,GA,44.0,COLUMBUS,31903,MUSCOGEE,32.49121010338983,-84.93505032542372,1321590751,13215,09868287480661806665
394492,32,"Columbus, OH",msa,OH,25.0,COLUMBUS,43260,FRANKLIN,,,,,
394493,285,"Concord, NH",msa,NH,23.0,CONCORD,3305,MERRIMACK,43.24880802307694,-71.6009283897436,3301314200,33013,09935526719952654313
394495,363,"Cookeville, TN",msa,TN,54.0,COOKEVILLE,37764,PUTNAM,36.06058395,-83.44673107499999,4708991040,47089,09825714100056166173
394502,129,"Corpus Christi, TX",msa,TX,83.0,CORPUS CHRISTI,76311,NUECES,33.920339879545445,-98.54643697045456,4848594215,48485,09679116401234704717
394514,4,"Dallas, TX",msa,TX,55.0,DALLAS,75237,DALLAS,32.81381150325578,-96.79673126945734,4811393682,48113,09677847296512577041
394519,203,"Daphne, AL",msa,AL,84.0,DAPHNE,35062,JEFFERSON,33.51757640264549,-86.81785523068787,0107392745,01073,09838425136801829203
394520,144,"Davenport, IA",msa,IL,32.0,"DAVENPORT, IA",61027,SAINT CLAIR,42.32176726153846,-89.65463726153845,1717724413,17177,09802203861794528147
394523,276,"Decatur, AL",msa,AL,47.0,DECATUR,35062,MORGAN,33.51757640264549,-86.81785523068787,0107392745,01073,09838425136801829203
394524,378,"Decatur, IL",msa,IL,30.0,DECATUR,62087,MACON,38.8045463873016,-90.03689196031745,1711914260,17119,09790640451152697525
394528,90,"Deltona, FL",msa,FL,75.0,DELTONA,32578,VOLUSIA,30.529779663265312,-86.56640536734693,1209190962,12091,09840764477153325533
394530,19,"Denver, CO",msa,CO,43.0,DENVER,80928,DENVER,38.87058524131737,-104.7615229251497,0804193420,08041,09733200158192746493
394531,84,"Des Moines, IA",msa,IA,43.0,DES MOINES,50223,POLK,42.04554242857143,-93.90724324285715,1901591629,19015,09794701560568753107
394532,14,"Detroit, MI",msa,MI,30.0,DETROIT,49674,WAYNE,44.96794756999999,-85.80896773,2608946700,26089,05569602193781053195
394537,293,"Dothan, AL",msa,AL,47.0,DOTHAN,36301,JEFFERSON,31.093006416666668,-85.79302736666666,0106192952,01061,09841003564970152805
394539,244,"Dover, DE",msa,DE,36.0,DOVER,19904,KENT,39.11679584285715,-75.54905946190476,1000190444,10001,09928041481720235737
394542,396,"Dubuque, IA",msa,IA,29.0,DUBUQUE,50223,DUBUQUE,42.04554242857143,-93.90724324285715,1901591629,19015,09794701560568753107
394543,171,"Duluth, MN",msa,MN,33.0,DULUTH,55111,SAINT LOUIS,44.96948295683893,-93.35278817568387,2705321965,27053,05959164719943605309
394549,95,"Durham, NC",msa,NC,44.0,DURHAM,27707,DURHAM,35.985798623529405,-78.90728125441176,3706390932,37063,09920555042204622779
394561,69,"El Paso, TX",msa,TX,63.0,EL PASO,77483,EL PASO,28.89679828461539,-95.95214393846155,4832192465,48321,09674232749747363141
394565,223,"Elkhart, IN",msa,IN,42.0,ELKHART,47568,ALLEN,38.6930999875,-87.107145075,1802706274,18027,09830752677499388451
394572,184,"Erie, PA",msa,PA,24.0,ERIE,16501,ERIE,42.07674526621622,-80.07599902972973,4204924000,42049,09814047879645846283
394576,146,"Eugene, OR",msa,OR,53.0,EUGENE,97350,LANE,44.555662528571425,-122.93063740714285,4104391904,41043,06107003858569160703
394579,165,"Evansville, IN",msa,IN,31.0,EVANSVILLE,47584,VANDERBURGH,38.41574585,-87.2503296,1812550418,18125,09830815804396282657
394580,407,"Fairbanks, AK",msa,AK,43.0,FAIRBANKS,99588,FAIRBANKS NORTH STAR BOROUGH,62.034479,-143.9221674,0206617350,02066,06247896290802709351
394585,194,"Fargo, ND",msa,ND,51.0,FARGO,58104,CASS,46.86070295454545,-96.87837275454545,3801709320,38017,05965241259787871939
394589,109,"Fayetteville, NC",msa,NC,35.0,FAYETTEVILLE,28302,CUMBERLAND,35.060483139506175,-78.93360296296298,3705190832,37051,09920140615155899777
394595,302,"Flagstaff, AZ",msa,AZ,54.0,FLAGSTAFF,86053,COCONINO,35.51505624871795,-111.63733964358974,0400593519,04005,09741971041521842387
394596,135,"Flint, MI",msa,MI,37.0,FLINT,48415,GENESEE,43.02001208358209,-83.69157919328353,2604982380,26049,09809827444964059151
394597,228,"Florence, SC",msa,SC,55.0,FLORENCE,29164,FLORENCE,33.525084839534884,-81.76626081627904,4500392223,45003,09869722914873268037
394598,292,"Florence, AL",msa,AL,50.0,FLORENCE,35062,JEFFERSON,33.51757640264549,-86.81785523068787,0107392745,01073,09838425136801829203
394602,152,"Fort Collins, CO",msa,CO,68.0,FORT COLLINS,80928,LARIMER,38.87058524131737,-104.7615229251497,0804193420,08041,09733200158192746493
394609,196,"Fort Smith, AR",msa,AR,51.0,FORT SMITH,72739,SEBASTIAN,36.33441084385965,-94.22977300175442,0500793644,05007,09784369424211870857
394612,132,"Fort Wayne, IN",msa,IN,27.0,FORT WAYNE,47584,ALLEN,38.41574585,-87.2503296,1812550418,18125,09830815804396282657
394619,57,"Fresno, CA",msa,CA,34.0,FRESNO,94929,FRESNO,37.9863072904762,-122.55948645873018,0604192200,06041,09260974727624595849
394620,383,"Gadsden, AL",msa,AL,57.0,GADSDEN,35062,JEFFERSON,33.51757640264549,-86.81785523068787,0107392745,01073,09838425136801829203
394622,155,"Gainesville, FL",msa,FL,69.0,GAINESVILLE,32578,ALACHUA,30.529779663265312,-86.56640536734693,1209190962,12091,09840764477153325533
394623,226,"Gainesville, GA",msa,GA,54.0,GAINESVILLE,31561,HALL,31.202444219230777,-81.45611414615385,1312792658,13127,09864245599384734075
394633,331,"Glens Falls, NY",msa,NY,33.0,GLENS FALLS,11770,JEFFERSON,40.82983666857143,-73.07775027584415,3610310000,36103,09937271675888165403
394639,280,"Grand Junction, CO",msa,CO,46.0,GRAND JUNCTION,80928,MESA,38.87058524131737,-104.7615229251497,0804193420,08041,09733200158192746493
394640,53,"Grand Rapids, MI",msa,MI,26.0,GRAND RAPIDS,48415,KENT,43.02001208358209,-83.69157919328353,2604982380,26049,09809827444964059151
394641,422,"Grants Pass, OR",msa,OR,95.0,GRANTS PASS,97532,JOSEPHINE,42.40503525454545,-123.4060372681818,4103391241,41033,06108399707406168249
394645,161,"Greeley, CO",msa,CO,52.0,GREELEY,80928,WELD,38.87058524131737,-104.7615229251497,0804193420,08041,09733200158192746493
394646,157,"Green Bay, WI",msa,WI,47.0,GREEN BAY,54842,BROWN,46.634135799999996,-91.97723091333334,5503141725,55031,05957796432035664309
394648,76,"Greensboro, NC",msa,NC,32.0,GREENSBORO,27405,GUILFORD,36.06174102936508,-79.85488134047614,3708191228,37081,09823225690607930295
394651,259,"Greenville, NC",msa,NC,37.0,GREENVILLE,27817,PITT,35.505107515384616,-76.9124998923077,3701390664,37013,09921217215186713781
394653,61,"Greenville, SC",msa,SC,44.0,GREENVILLE,29164,GREENVILLE,33.525084839534884,-81.76626081627904,4500392223,45003,09869722914873268037
394658,133,"Gulfport, MS",msa,MS,67.0,GULFPORT,39044,HARRISON,32.283249802702706,-90.02137885135136,2812190549,28121,09667023048327977349
394660,170,"Hagerstown, MD",msa,MD,27.0,HAGERSTOWN,21747,WASHINGTON,,,,,
394666,99,"Harrisburg, PA",msa,PA,21.0,HARRISBURG,17120,DAUPHIN,40.30954268805971,-76.79888456268655,4204332800,42043,09928388709694221611
394669,49,"Hartford, CT",msa,CT,21.0,HARTFORD,6115,HARTFORD,41.77943911646586,-72.65963041365463,0911037070,09110,09936722524383557959
394674,467,"Heber, UT",msa,UT,89.0,HEBER,84326,WASHINGTON,41.74509176428571,-111.84122481071431,4900591763,49005,09751557513414295837
394680,229,"Hilo, HI",msa,HI,77.0,HILO,96752,HAWAII,22.01240324761905,-159.57324844285714,1500791440,15007,08937114367731244049
394681,216,"Hilton Head Island, SC",msa,SC,67.0,HILTON HEAD ISLAND,29164,BEAUFORT,33.525084839534884,-81.76626081627904,4500392223,45003,09869722914873268037
394685,289,"Homosassa Springs, FL",msa,FL,79.0,HOMOSASSA SPRINGS,32578,MONROE,30.529779663265312,-86.56640536734693,1209190962,12091,09840764477153325533
394692,5,"Houston, TX",msa,TX,61.0,HOUSTON,77091,HARRIS,29.798469954977577,-95.41810620663665,4820191835,48201,09673950890020112969
394697,151,"Huntington, WV",msa,OH,35.0,"HUNTINGTON, WV",45362,LAWRENCE,40.116589942857146,-84.61242405714286,3903701294,39037,09817824436034892991
394698,114,"Huntsville, AL",msa,AL,52.0,HUNTSVILLE,35810,MADISON,34.740248615789476,-86.61283622210524,0108991674,01089,09827535467173859595
394703,279,"Idaho Falls, ID",msa,ID,52.0,IDAHO FALLS,83622,BONNEVILLE,43.891115000000006,-115.7866925,1601591173,16015,06102140723239642545
394705,34,"Indianapolis, IN",msa,IN,33.0,INDIANAPOLIS,47832,MARION,39.74392730000001,-87.2215864,1812143344,18121,09830575682085666897
394710,272,"Jackson, MI",msa,MI,36.0,JACKSON,48415,JACKSON,43.02001208358209,-83.69157919328353,2604982380,26049,09809827444964059151
394711,98,"Jackson, MS",msa,MS,47.0,JACKSON,39236,HINDS,32.3072222641791,-90.24990367611937,2804990225,28049,09667034157078776617
394712,246,"Jackson, TN",msa,TN,49.0,JACKSON,38313,MADISON,35.43221322000001,-88.62881852000001,4702390214,47023,09834800757891866781
394714,40,"Jacksonville, FL",msa,FL,69.0,JACKSONVILLE,32235,DUVAL,30.302979077625576,-81.62131543926941,1203191642,12031,09864491089113670845
394716,227,"Jacksonville, NC",msa,NC,35.0,JACKSONVILLE,28545,ONSLOW,34.73675070000001,-77.40508329565216,3713390482,37133,09919477387694474115
394719,328,"Jamestown, NY",msa,NY,38.0,JAMESTOWN,11770,JEFFERSON,40.82983666857143,-73.07775027584415,3610310000,36103,09937271675888165403
394723,291,"Jefferson City, MO",msa,MO,25.0,JEFFERSON CITY,65102,COLE,38.55027798333334,-92.22598657777779,2905136764,29051,09789516436641062655
394726,224,"Johnson City, TN",msa,TN,35.0,JOHNSON CITY,37764,WASHINGTON,36.06058395,-83.44673107499999,4708991040,47089,09825714100056166173
394727,322,"Johnstown, PA",msa,PA,43.0,JOHNSTOWN,15906,CAMBRIA,40.39689151666667,-78.81238109523808,4202109400,42021,09929044364724318893
394729,243,"Joplin, MO",msa,MO,35.0,JOPLIN,63782,BOLLINGER,37.3184774,-90.02106206666667,2901777956,29017,09788574062815838603
394731,267,"Kahului, HI",msa,HI,75.0,KAHULUI,96752,MAUI,22.01240324761905,-159.57324844285714,1500791440,15007,08937114367731244049
394732,190,"Kalamazoo, MI",msa,MI,31.0,KALAMAZOO,48415,KALAMAZOO,43.02001208358209,-83.69157919328353,2604982380,26049,09809827444964059151
394734,370,"Kankakee, IL",msa,IL,25.0,KANKAKEE,62087,SAINT CLAIR,38.8045463873016,-90.03689196031745,1711914260,17119,09790640451152697525
394735,31,"Kansas City, MO",msa,MO,28.0,KANSAS CITY,64114,JACKSON,39.252404534545455,-94.48786671636361,2904726290,29047,09781913007341037069
394738,466,"Keene, NH",msa,NH,19.0,KEENE,3435,CHESHIRE,42.90597466666667,-72.26379501666666,3300539300,33005,09935349492349277755
394746,120,"Killeen, TX",msa,TX,70.0,KILLEEN,76311,RUSK,33.920339879545445,-98.54643697045456,4848594215,48485,09679116401234704717
394747,167,"Kingsport, TN",msa,TN,41.0,KINGSPORT,37664,SULLIVAN,36.53648637,-82.393766135,4716391114,47163,09825323860312235801
394748,241,"Kingston, NY",msa,NY,56.0,KINGSTON,11770,JEFFERSON,40.82983666857143,-73.07775027584415,3610310000,36103,09937271675888165403
394753,65,"Knoxville, TN",msa,TN,40.0,KNOXVILLE,37950,KNOX,35.97036982396697,-83.98309529256201,4709390664,47093,09825795442256663535
394756,311,"La Crosse, WI",msa,WI,23.0,LA CROSSE,54842,MANITOWOC,46.634135799999996,-91.97723091333334,5503141725,55031,05957796432035664309
394759,519,"Laconia, NH",msa,NH,39.0,LACONIA,3246,BELKNAP,43.52958755555556,-71.43799406111111,3300104740,33001,05526818291993430617
394761,116,"Lafayette, LA",msa,LA,56.0,LAFAYETTE,70509,LAFAYETTE PARISH,30.204543800000003,-92.04084840344828,2205595737,22055,09666022517062195489
394765,218,"Lake Havasu City, AZ",msa,AZ,70.0,LAKE HAVASU CITY,86053,MOHAVE,35.51505624871795,-111.63733964358974,0400593519,04005,09741971041521842387
394766,82,"Lakeland, FL",msa,FL,73.0,LAKELAND,32578,POLK,30.529779663265312,-86.56640536734693,1209190962,12091,09840764477153325533
394768,104,"Lancaster, PA",msa,PA,17.0,LANCASTER,17601,LANCASTER,40.07230788017242,-76.29871165000003,4207121232,42071,09927661361361265647
394770,107,"Lansing, MI",msa,MI,24.0,LANSING,48415,INGHAM,43.02001208358209,-83.69157919328353,2604982380,26049,09809827444964059151
394773,214,"Las Cruces, NM",msa,NM,45.0,LAS CRUCES,87151,DONA ANA,35.10743915681818,-106.61285108636368,3500193735,35001,09737473658300692351
394775,30,"Las Vegas, NV",msa,NV,43.0,LAS VEGAS,89425,CLARK,41.064314839999994,-117.76951278000001,3201394546,32013,09268672404113317695
394778,349,"Lawrence, KS",msa,KS,36.0,LAWRENCE,66869,SEDGWICK,38.2994749,-96.5940289,2001717975,20017,09780674769766239059
394780,332,"Lawton, OK",msa,OK,34.0,LAWTON,73501,COMANCHE,34.63098591578948,-98.42406601315788,4003191651,40031,09776504376646008707
394783,306,"Lebanon, PA",msa,PA,17.0,LEBANON,17763,LEBANON,41.25873931562499,-77.0097967375,4208146208,42081,09930338230128341083
394788,367,"Lewiston, ME",msa,ME,18.0,LEWISTON,4050,ANDROSCOGGIN,43.751804898765435,-70.30688758641975,2300541067,23005,05526626408279006997
394792,110,"Lexington, KY",msa,KY,29.0,LEXINGTON,40508,FAYETTE,38.02301054634146,-84.48928312195123,2106792034,21067,09818485807400776851
394796,154,"Lincoln, NE",msa,NE,29.0,LINCOLN,68588,LANCASTER,40.79925264567902,-96.67383940000002,3110991776,31109,09770205877914745749
394798,81,"Little Rock, AR",msa,AR,56.0,LITTLE ROCK,72739,PULASKI,36.33441084385965,-94.22977300175442,0500793644,05007,09784369424211870857
394800,301,"Logan, UT",msa,UT,59.0,LOGAN,84341,CACHE,41.74509176428571,-111.84122481071431,4900591763,49005,09751557513414295837
394803,173,"Longview, TX",msa,TX,89.0,LONGVIEW,76311,GREGG,33.920339879545445,-98.54643697045456,4848594215,48485,09679116401234704717
394807,46,"Louisville, KY",msa,KY,33.0,LOUISVILLE,40222,JEFFERSON,38.20479667453701,-85.69892978935187,2111191099,21111,09829401467545601721
394808,162,"Lubbock, TX",msa,TX,64.0,LUBBOCK,76311,LUBBOCK,33.920339879545445,-98.54643697045456,4848594215,48485,09679116401234704717
394811,191,"Lynchburg, VA",msa,VA,51.0,LYNCHBURG,24538,LYNCHBURG CITY,37.369111874999994,-78.82910852500001,5101193524,51011,09922270758361932661
394813,200,"Macon, GA",msa,GA,55.0,MACON,30633,BIBB,34.3485178,-83.49543944999999,1301192803,13011,09824789434329956651
394816,88,"Madison, WI",msa,WI,35.0,MADISON,54842,DANE,46.634135799999996,-91.97723091333334,5503141725,55031,05957796432035664309
394820,131,"Manchester, NH",msa,NH,20.0,MANCHESTER,3102,HILLSBOROUGH,42.8812624747573,-71.54859258543688,3301104500,33011,09935984454483744731
394821,320,"Manhattan, KS",msa,KS,46.0,MANHATTAN,66869,SEDGWICK,38.2994749,-96.5940289,2001717975,20017,09780674769766239059
394843,67,"McAllen, TX",msa,TX,96.0,MCALLEN,76311,RUSK,33.920339879545445,-98.54643697045456,4848594215,48485,09679116401234704717
394848,210,"Medford, OR",msa,OR,54.0,MEDFORD,97504,CLATSOP,42.34566697115384,-122.8452059769231,4102990119,41029,06111238457611049035
394849,44,"Memphis, TN",msa,TN,60.0,MEMPHIS,38112,SHELBY,35.131494002008026,-89.91227880160638,4715791298,47157,09835725206900380605
394851,177,"Merced, CA",msa,CA,43.0,MERCED,96119,KERN,40.4352536,-120.5781354111111,0603591820,06035,09267728001823725801
394856,8,"Miami, FL",msa,FL,76.0,MIAMI,33175,MIAMI-DADE,25.77347017835923,-80.29361691852901,1208691705,12086,09861117131188973359
394859,437,"Midland, MI",msa,MI,20.0,MIDLAND,48415,MIDLAND,43.02001208358209,-83.69157919328353,2604982380,26049,09809827444964059151
394860,254,"Midland, TX",msa,TX,46.0,MIDLAND,76311,MIDLAND,33.920339879545445,-98.54643697045456,4848594215,48485,09679116401234704717
394862,41,"Milwaukee, WI",msa,WI,34.0,MILWAUKEE,54842,MILWAUKEE,46.634135799999996,-91.97723091333334,5503141725,55031,05957796432035664309
394865,16,"Minneapolis, MN",msa,MN,42.0,MINNEAPOLIS,55486,HENNEPIN,,,,,
394866,458,"Minot, ND",msa,ND,37.0,MINOT,58702,WARD,48.26017490625,-101.34263245000001,3810153380,38101,05971536764984823893
394870,127,"Mobile, AL",msa,AL,51.0,MOBILE,36618,MOBILE,30.681075483703722,-88.1563084577778,0109792187,01097,09843264900684253535
394871,103,"Modesto, CA",msa,CA,31.0,MODESTO,96119,STANISLAUS,40.4352536,-120.5781354111111,0603591820,06035,09267728001823725801
394872,222,"Monroe, LA",msa,LA,46.0,MONROE,71455,OUACHITA PARISH,31.757420736363642,-93.09047580000001,2206995512,22069,09669366232422374265
394873,283,"Monroe, MI",msa,MI,39.0,MONROE,48415,BAY,43.02001208358209,-83.69157919328353,2604982380,26049,09809827444964059151
394875,143,"Montgomery, AL",msa,AL,46.0,MONTGOMERY,36108,MONTGOMERY,32.341311080281685,-86.24458125633802,0110191665,01101,09839286052773143693
394877,491,"Morehead City, NC",msa,NC,70.0,MOREHEAD CITY,27817,CARTERET,35.505107515384616,-76.9124998923077,3701390664,37013,09921217215186713781
394890,327,"Mount Vernon, WA",msa,WA,44.0,MOUNT VERNON,99170,PIERCE,47.6783933746154,-117.37186487692314,5306390056,53063,06097338212157320367
394893,364,"Muncie, IN",msa,IN,25.0,MUNCIE,47303,DELAWARE,40.203057982352945,-85.40102696176469,1803511296,18035,09805811343605914227
394896,250,"Muskegon, MI",msa,MI,31.0,MUSKEGON,48415,MUSKEGON,43.02001208358209,-83.69157919328353,2604982380,26049,09809827444964059151
394898,117,"Myrtle Beach, SC",msa,SC,71.0,MYRTLE BEACH,29164,HORRY,33.525084839534884,-81.76626081627904,4500392223,45003,09869722914873268037
394901,147,"Naples, FL",msa,FL,108.0,NAPLES,32578,COLLIER,30.529779663265312,-86.56640536734693,1209190962,12091,09840764477153325533
394902,37,"Nashville, TN",msa,TN,50.0,NASHVILLE,37210,DAVIDSON,36.143059177011494,-86.7542700977011,4703792698,47037,09828092497870374657
394905,341,"New Bern, NC",msa,NC,34.0,NEW BERN,27817,CARTERET,35.505107515384616,-76.9124998923077,3701390664,37013,09921217215186713781
394907,427,"New Castle, PA",msa,PA,31.0,NEW CASTLE,15929,LAWRENCE,40.61027590833334,-79.1255568875,4206310104,42063,09929130185787377003
394908,68,"New Haven, CT",msa,CT,26.0,NEW HAVEN,6540,NEW HAVEN,41.34778000514706,-72.88586886102942,0917052070,09170,09937140557516150659
394910,47,"New Orleans, LA",msa,LA,77.0,NEW ORLEANS,71455,ORLEANS PARISH,31.757420736363642,-93.09047580000001,2206995512,22069,09669366232422374265
394913,1,"New York, NY",msa,NY,58.0,NEW YORK,10475,NEW YORK,40.8503486592798,-73.87937228919667,3600508510,36005,09926765381055589563
394917,282,"Niles, MI",msa,MI,39.0,NILES,48415,BAY,43.02001208358209,-83.69157919328353,2604982380,26049,09809827444964059151
394924,185,"Norwich, CT",msa,CT,27.0,NORWICH,6380,NEW LONDON,41.45906376617649,-72.10137244558824,0918056270,09180,09936755868266092477
394925,428,"Oak Harbor, WA",msa,WA,42.0,OAK HARBOR,99170,PIERCE,47.6783933746154,-117.37186487692314,5306390056,53063,06097338212157320367
394927,149,"Ocala, FL",msa,FL,73.0,OCALA,32578,MARION,30.529779663265312,-86.56640536734693,1209190962,12091,09840764477153325533
394928,410,"Ocean City, NJ",msa,NJ,49.0,OCEAN CITY,7712,MONMOUTH,40.2860714348387,-74.13254062516134,3402501960,34025,09926545063437216271
394931,87,"Ogden, UT",msa,UT,43.0,OGDEN,84326,WEBER,41.74509176428571,-111.84122481071431,4900591763,49005,09751557513414295837
394935,42,"Oklahoma City, OK",msa,OK,50.0,OKLAHOMA CITY,73146,OKLAHOMA,35.51931652180449,-97.51115678533836,4010992426,40109,09777906255439233477
394937,172,"Olympia, WA",msa,WA,33.0,OLYMPIA,99170,THURSTON,47.6783933746154,-117.37186487692314,5306390056,53063,06097338212157320367
394938,59,"Omaha, NE",msa,NE,30.0,OMAHA,68183,DOUGLAS,41.262904467484674,-96.0579198110429,3105592237,31055,09769307357312202023
394943,22,"Orlando, FL",msa,FL,60.0,ORLANDO,32872,ORANGE,28.535259090636693,-81.38233953146072,1209593458,12095,09864988752675333603
394952,71,"Oxnard, CA",msa,CA,36.0,OXNARD,96119,KERN,40.4352536,-120.5781354111111,0603591820,06035,09267728001823725801
394957,97,"Palm Bay, FL",msa,FL,64.0,PALM BAY,32578,BREVARD,30.529779663265312,-86.56640536734693,1209190962,12091,09840764477153325533
394960,242,"Panama City, FL",msa,FL,99.0,PANAMA CITY,32578,BAY,30.529779663265312,-86.56640536734693,1209190962,12091,09840764477153325533
394971,111,"Pensacola, FL",msa,FL,70.0,PENSACOLA,32578,ESCAMBIA,30.529779663265312,-86.56640536734693,1209190962,12091,09840764477153325533
394972,136,"Peoria, IL",msa,IL,33.0,PEORIA,61604,PEORIA,40.73626200612246,-89.63382563061224,1714339818,17143,09802749186748664623
394974,7,"Philadelphia, PA",msa,PA,30.0,PHILADELPHIA,19127,PHILADELPHIA,39.99874075098038,-75.14853396789216,4210160000,42101,09927824729594631687
394976,11,"Phoenix, AZ",msa,AZ,48.0,PHOENIX,85006,MARICOPA,33.48739477770075,-112.03553056937574,0401392601,04013,09739893579781124119
394982,27,"Pittsburgh, PA",msa,PA,40.0,PITTSBURGH,15233,ALLEGHENY,40.44385505025382,-79.9639181505076,4200361000,42003,09814735755168028095
394983,326,"Pittsfield, MA",msa,MA,51.0,PITTSFIELD,1745,BERKSHIRE,42.31046940314135,-71.81702707853398,2502763165,25027,09936074871061153977
394988,412,"Pocatello, ID",msa,ID,64.0,POCATELLO,83206,BANNOCK,42.865684833333326,-112.41979737916665,1600592852,16005,06004792727558776037
394995,115,"Port St. Lucie, FL",msa,FL,69.0,PORT ST. LUCIE,32578,MONROE,30.529779663265312,-86.56640536734693,1209190962,12091,09840764477153325533
394997,105,"Portland, ME",msa,ME,29.0,PORTLAND,4101,CUMBERLAND,43.751804898765435,-70.30688758641975,2300560545,23005,05526626408279006997
394998,25,"Portland, OR",msa,OR,46.0,PORTLAND,97294,MULTNOMAH,45.52066893756344,-122.6053966050761,4105192518,41051,06094954574300306737
395000,304,"Pottsville, PA",msa,PA,32.0,POTTSVILLE,15929,SCHUYLKILL,40.61027590833334,-79.1255568875,4206310104,42063,09929130185787377003
395005,39,"Providence, RI",msa,RI,26.0,PROVIDENCE,2940,PROVIDENCE,41.86055085862069,-71.44650139931034,4400759000,44007,09936141735774426345
395006,92,"Provo, UT",msa,UT,40.0,PROVO,84603,UTAH,40.26739404487179,-111.73562892948722,4904992709,49049,09749619248929069795
395007,264,"Pueblo, CO",msa,CO,71.0,PUEBLO,80928,PUEBLO,38.87058524131737,-104.7615229251497,0804193420,08041,09733200158192746493
395009,237,"Punta Gorda, FL",msa,FL,89.0,PUNTA GORDA,32578,CHARLOTTE,30.529779663265312,-86.56640536734693,1209190962,12091,09840764477153325533
395012,43,"Raleigh, NC",msa,NC,36.0,RALEIGH,27809,WAKE,35.901108792857144,-77.63424368571428,3706593588,37065,09921020867657626189
395013,313,"Rapid City, SD",msa,SD,45.0,RAPID CITY,57030,PENNINGTON,43.55799326170213,-96.72887981914893,4609906820,46099,09767944154926128715
395015,128,"Reading, PA",msa,PA,19.0,READING,15929,BERKS,40.61027590833334,-79.1255568875,4206310104,42063,09929130185787377003
395018,240,"Redding, CA",msa,CA,47.0,REDDING,96119,KERN,40.4352536,-120.5781354111111,0603591820,06035,09267728001823725801
395019,113,"Reno, NV",msa,NV,51.0,RENO,89023,WASHOE,36.62590888666667,-116.15207114,3202394938,32023,09279594199221234221
395022,45,"Richmond, VA",msa,VA,28.0,RICHMOND,23173,RICHMOND CITY,37.60167784352941,-77.4963324882353,5108796119,51087,09921733759884885999
395025,13,"Riverside, CA",msa,CA,47.0,RIVERSIDE,96119,RIVERSIDE,40.4352536,-120.5781354111111,0603591820,06035,09267728001823725801
395028,164,"Roanoke, VA",msa,VA,30.0,ROANOKE,24015,ROANOKE CITY,37.26712732272727,-80.00002149090906,5116190664,51161,09821520082849543675
395030,207,"Rochester, MN",msa,MN,42.0,ROCHESTER,55111,STEARNS,44.96948295683893,-93.35278817568387,2705321965,27053,05959164719943605309
395031,52,"Rochester, NY",msa,NY,17.0,ROCHESTER,11770,MONROE,40.82983666857143,-73.07775027584415,3610310000,36103,09937271675888165403
395033,153,"Rockford, IL",msa,IL,21.0,ROCKFORD,62087,WINNEBAGO,38.8045463873016,-90.03689196031745,1711914260,17119,09790640451152697525
395036,303,"Rocky Mount, NC",msa,NC,40.0,ROCKY MOUNT,27817,CARTERET,35.505107515384616,-76.9124998923077,3701390664,37013,09921217215186713781
395039,366,"Roseburg, OR",msa,OR,45.0,ROSEBURG,97350,CLATSOP,44.555662528571425,-122.93063740714285,4104391904,41043,06107003858569160703
395045,26,"Sacramento, CA",msa,CA,36.0,SACRAMENTO,94290,SACRAMENTO,,,,,
395047,233,"Saginaw, MI",msa,MI,34.0,SAGINAW,48415,SAGINAW,43.02001208358209,-83.69157919328353,2604982380,26049,09809827444964059151
395048,126,"Salem, OR",msa,OR,54.0,SALEM,97312,MARION,44.96307619384615,-122.9494948307692,4104792737,41047,06106876851078429351
395050,125,"Salinas, CA",msa,CA,46.0,SALINAS,96119,KERN,40.4352536,-120.5781354111111,0603591820,06035,09267728001823725801
395051,134,"Salisbury, MD",msa,DE,49.0,"SALISBURY, MD",19944,SUSSEX,38.65421568133333,-75.27248349066666,1000593552,10005,09923894075953621059
395053,48,"Salt Lake City, UT",msa,UT,39.0,SALT LAKE CITY,84326,SALT LAKE,41.74509176428571,-111.84122481071431,4900591763,49005,09751557513414295837
395054,344,"San Angelo, TX",msa,TX,78.0,SAN ANGELO,76311,TOM GREEN,33.920339879545445,-98.54643697045456,4848594215,48485,09679116401234704717
395055,24,"San Antonio, TX",msa,TX,80.0,SAN ANTONIO,78229,BEXAR,29.478583512533326,-98.52255938373334,4802993407,48029,09681718501886573447
395056,17,"San Diego, CA",msa,CA,39.0,SAN DIEGO,92168,SAN DIEGO,32.876304211533274,-117.11257490284932,0607392780,06073,09285295172062272189
395057,12,"San Francisco, CA",msa,CA,35.0,SAN FRANCISCO,94151,SAN FRANCISCO,,,,,
395059,36,"San Jose, CA",msa,CA,26.0,SAN JOSE,94929,SANTA CLARA,37.9863072904762,-122.55948645873018,0604192200,06041,09260974727624595849
395061,175,"San Luis Obispo, CA",msa,CA,35.0,SAN LUIS OBISPO,96119,KERN,40.4352536,-120.5781354111111,0603591820,06035,09267728001823725801
395065,183,"Santa Cruz, CA",msa,CA,44.0,SANTA CRUZ,96119,KERN,40.4352536,-120.5781354111111,0603591820,06035,09267728001823725801
395066,284,"Santa Fe, NM",msa,NM,64.0,SANTA FE,87151,SANTA FE,35.10743915681818,-106.61285108636368,3500193735,35001,09737473658300692351
395068,112,"Santa Rosa, CA",msa,CA,38.0,SANTA ROSA,96119,KERN,40.4352536,-120.5781354111111,0603591820,06035,09267728001823725801
395070,138,"Savannah, GA",msa,GA,51.0,SAVANNAH,30633,CHATHAM,34.3485178,-83.49543944999999,1301192803,13011,09824789434329956651
395075,101,"Scranton, PA",msa,PA,32.0,SCRANTON,15929,LACKAWANNA,40.61027590833334,-79.1255568875,4206310104,42063,09929130185787377003
395078,15,"Seattle, WA",msa,WA,32.0,SEATTLE,98145,KING,47.55432355393942,-122.23426167797976,5303392928,53033,06093486321334863113
395079,274,"Sebastian, FL",msa,FL,85.0,SEBASTIAN,32578,MONROE,30.529779663265312,-86.56640536734693,1209190962,12091,09840764477153325533
395080,390,"Sebring, FL",msa,FL,70.0,SEBRING,32578,HIGHLANDS,30.529779663265312,-86.56640536734693,1209190962,12091,09840764477153325533
395086,402,"Sevierville, TN",msa,TN,80.0,SEVIERVILLE,37764,MARION,36.06058395,-83.44673107499999,4708991040,47089,09825714100056166173
395088,482,"Shawnee, OK",msa,OK,57.0,SHAWNEE,74081,OSAGE,35.9758632826087,-96.2292545347826,4003791573,40037,09779208685014748999
395094,319,"Sherman, TX",msa,TX,69.0,SHERMAN,76311,RUSK,33.920339879545445,-98.54643697045456,4848594215,48485,09679116401234704717
395096,141,"Shreveport, LA",msa,LA,63.0,SHREVEPORT,71455,CADDO PARISH,31.757420736363642,-93.09047580000001,2206995512,22069,09669366232422374265
395098,335,"Sierra Vista, AZ",msa,AZ,72.0,SIERRA VISTA,86053,COCHISE,35.51505624871795,-111.63733964358974,0400593519,04005,09741971041521842387
395102,297,"Sioux City, IA",msa,IA,37.0,SIOUX CITY,50223,WOODBURY,42.04554242857143,-93.90724324285715,1901591629,19015,09794701560568753107
395106,475,"Somerset, PA",msa,PA,38.0,SOMERSET,15501,SOMERSET,40.01447977916667,-79.04212632916666,4211106640,42111,09928992145759664115
395107,159,"South Bend, IN",msa,IN,38.0,SOUTH BEND,46634,SAINT JOSEPH,41.67136622926829,-86.23488904756098,1814161128,18141,09806250740369755421
395109,160,"Spartanburg, SC",msa,SC,56.0,SPARTANBURG,29324,SPARTANBURG,34.96168194827585,-81.99272762068965,4508390793,45083,09824451051900814163
395113,100,"Spokane, WA",msa,WA,46.0,SPOKANE,99207,SPOKANE,47.6783933746154,-117.37186487692314,5306393200,53063,06097338212157320367
395114,220,"Springfield, IL",msa,IL,25.0,SPRINGFIELD,62765,SANGAMON,39.780457127777765,-89.65376228703707,1716711046,17167,09832828786623218515
395115,85,"Springfield, MA",msa,MA,25.0,SPRINGFIELD,1138,HAMPDEN,42.12841482884615,-72.57671046826921,2501367000,25013,09936884102548662317
395116,118,"Springfield, MO",msa,MO,41.0,SPRINGFIELD,63782,GREENE,37.3184774,-90.02106206666667,2901777956,29017,09788574062815838603
395117,316,"Springfield, OH",msa,OH,24.0,SPRINGFIELD,45362,CLARK,40.116589942857146,-84.61242405714286,3903701294,39037,09817824436034892991
395118,230,"St. Cloud, MN",msa,MN,39.0,ST. CLOUD,55111,STEARNS,44.96948295683893,-93.35278817568387,2705321965,27053,05959164719943605309
395119,249,"St. George, UT",msa,UT,57.0,ST. GEORGE,84326,WASHINGTON,41.74509176428571,-111.84122481071431,4900591763,49005,09751557513414295837
395120,343,"St. Joseph, MO",msa,MO,28.0,ST. JOSEPH,63782,BOLLINGER,37.3184774,-90.02106206666667,2901777956,29017,09788574062815838603
395121,21,"St. Louis, MO",msa,MO,25.0,ST. LOUIS,63782,BOLLINGER,37.3184774,-90.02106206666667,2901777956,29017,09788574062815838603
395134,77,"Stockton, CA",msa,CA,36.0,STOCKTON,96119,SAN JOAQUIN,40.4352536,-120.5781354111111,0603591820,06035,09267728001823725801
395143,91,"Syracuse, NY",msa,NY,20.0,SYRACUSE,13207,ONONDAGA,43.057886885915494,-76.16118095704229,3606754958,36067,09933238522110950637
395146,145,"Tallahassee, FL",msa,FL,54.0,TALLAHASSEE,32578,LEON,30.529779663265312,-86.56640536734693,1209190962,12091,09840764477153325533
395148,18,"Tampa, FL",msa,FL,64.0,TAMPA,32578,HILLSBOROUGH,30.529779663265312,-86.56640536734693,1209190962,12091,09840764477153325533
395151,235,"Terre Haute, IN",msa,IN,40.0,TERRE HAUTE,47805,VIGO,39.74392730000001,-87.2215864,1812123764,18121,09830575682085666897
395153,329,"The Villages, FL",msa,FL,78.0,THE VILLAGES,32578,MONROE,30.529779663265312,-86.56640536734693,1209190962,12091,09840764477153325533
395160,93,"Toledo, OH",msa,OH,24.0,TOLEDO,45362,LUCAS,40.116589942857146,-84.61242405714286,3903701294,39037,09817824436034892991
395161,199,"Topeka, KS",msa,KS,32.0,TOPEKA,66420,SHAWNEE,39.03877358913042,-95.7011476521739,2017718475,20177,09781540115429504497
395162,236,"Torrington, CT",msa,CT,46.0,TORRINGTON,6792,LITCHFIELD,41.828416210810815,-73.16078477027025,0916076570,09160,09937079603904893401
395163,287,"Traverse City, MI",msa,MI,46.0,TRAVERSE CITY,48415,GRAND TRAVERSE,43.02001208358209,-83.69157919328353,2604982380,26049,09809827444964059151
395164,142,"Trenton, NJ",msa,NJ,31.0,TRENTON,8619,MERCER,40.2559379392857,-74.70794630952382,3402129310,34021,09926312504949782629
395166,389,"Truckee, CA",msa,CA,54.0,TRUCKEE,96119,KERN,40.4352536,-120.5781354111111,0603591820,06035,09267728001823725801
395167,54,"Tucson, AZ",msa,AZ,50.0,TUCSON,85756,PIMA,32.215772335925934,-110.96084615185187,0401990153,04019,09716077469053513193
395168,374,"Tullahoma, TN",msa,TN,50.0,TULLAHOMA,37764,MARION,36.06058395,-83.44673107499999,4708991040,47089,09825714100056166173
395169,56,"Tulsa, OK",msa,OK,49.0,TULSA,74169,TULSA,36.101929789423096,-95.91288349663463,4014393380,40143,09779164975186833811
395171,188,"Tuscaloosa, AL",msa,AL,56.0,TUSCALOOSA,35062,TUSCALOOSA,33.51757640264549,-86.81785523068787,0107392745,01073,09838425136801829203
395173,361,"Twin Falls, ID",msa,ID,49.0,TWIN FALLS,83445,FREMONT,44.048368525,-111.557390675,1604391725,16043,06004396367572844773
395174,201,"Tyler, TX",msa,TX,73.0,TYLER,76311,SMITH,33.920339879545445,-98.54643697045456,4848594215,48485,09679116401234704717
395179,169,"Utica, NY",msa,NY,42.0,UTICA,11770,ONEIDA,40.82983666857143,-73.07775027584415,3610310000,36103,09937271675888165403
395183,123,"Vallejo, CA",msa,CA,37.0,VALLEJO,96119,KERN,40.4352536,-120.5781354111111,0603591820,06035,09267728001823725801
395194,38,"Virginia Beach, VA",msa,VA,46.0,VIRGINIA BEACH,23454,VIRGINIA BEACH CITY,36.82524479375002,-76.09264967499996,5181096187,51810,09924408905941045447
395195,119,"Visalia, CA",msa,CA,51.0,VISALIA,96119,KERN,40.4352536,-120.5781354111111,0603591820,06035,09267728001823725801
395197,178,"Waco, TX",msa,TX,73.0,WACO,76311,MCLENNAN,33.920339879545445,-98.54643697045456,4848594215,48485,09679116401234704717
395202,234,"Warner Robins, GA",msa,GA,42.0,WARNER ROBINS,31561,HOUSTON,31.202444219230777,-81.45611414615385,1312792658,13127,09864245599384734075
395209,6,"Washington, DC",msa,VA,27.0,"WASHINGTON, DC",23234,MATHEWS,37.42007013333335,-77.55005410933335,5104190248,51041,09921725446653435335
395210,261,"Waterloo, IA",msa,IA,30.0,WATERLOO,50223,BLACK HAWK,42.04554242857143,-93.90724324285715,1901591629,19015,09794701560568753107
395217,353,"Weirton, WV",msa,OH,36.0,"WEIRTON, WV",45362,LAWRENCE,40.116589942857146,-84.61242405714286,3903701294,39037,09817824436034892991
395218,345,"Wenatchee, WA",msa,WA,50.0,WENATCHEE,98807,PIERCE,47.58459352608696,-120.38711260869567,5300793712,53007,06096667356231255005
395221,309,"Wheeling, WV",msa,OH,47.0,"WHEELING, WV",45362,LAWRENCE,40.116589942857146,-84.61242405714286,3903701294,39037,09817824436034892991
395223,298,"Wichita Falls, TX",msa,TX,70.0,WICHITA FALLS,76311,WICHITA,33.920339879545445,-98.54643697045456,4848594215,48485,09679116401234704717
395224,94,"Wichita, KS",msa,KS,30.0,WICHITA,67209,SEDGWICK,37.67969330666667,-97.33826769851855,2017317375,20173,09780380156926079303
395229,174,"Wilmington, NC",msa,NC,57.0,WILMINGTON,28403,NEW HANOVER,34.204679301818175,-77.88881597090909,3712991404,37129,09919729799031513129
395232,308,"Winchester, VA",msa,VA,36.0,WINCHESTER,22604,MATHEWS,39.179658100000005,-78.16792031666667,5184096427,51840,09923099426472177317
395235,89,"Winston, NC",msa,NC,34.0,WINSTON,27155,FORSYTH,36.10720049473683,-80.25263352210528,3706794068,37067,09823386987089271069
395238,58,"Worcester, MA",msa,MA,25.0,WORCESTER,1603,WORCESTER,42.31046940314135,-71.81702707853398,2502702760,25027,09936074871061153977
395240,193,"Yakima, WA",msa,WA,44.0,YAKIMA,99170,YAKIMA,47.6783933746154,-117.37186487692314,5306390056,53063,06097338212157320367
395244,122,"York, PA",msa,PA,23.0,YORK,15929,YORK,40.61027590833334,-79.1255568875,4206310104,42063,09929130185787377003
395245,106,"Youngstown, OH",msa,OH,27.0,YOUNGSTOWN,45362,MAHONING,40.116589942857146,-84.61242405714286,3903701294,39037,09817824436034892991
395246,247,"Yuba City, CA",msa,CA,47.0,YUBA CITY,96119,KERN,40.4352536,-120.5781354111111,0603591820,06035,09267728001823725801
395248,426,"Zanesville, OH",msa,OH,34.0,ZANESVILLE,45362,LAWRENCE,40.116589942857146,-84.61242405714286,3903701294,39037,09817824436034892991
753869,255,"Bloomington, IL",msa,IL,25.0,BLOOMINGTON,61709,MCLEAN,40.48654542765958,-88.94660879361703,1711306639,17113,09803052213489065789
753871,811,"Breckenridge, CO",msa,CO,81.0,BRECKENRIDGE,80928,EL PASO,38.87058524131737,-104.7615229251497,0804193420,08041,09733200158192746493
753872,361,"California, MD",msa,MD,29.0,CALIFORNIA,21240,ANNE ARUNDEL,39.06840900769232,-76.59393803384611,2400390008,24003,09923675561442213743
753875,176,"Crestview, FL",msa,FL,93.0,CRESTVIEW,32578,MONROE,30.529779663265312,-86.56640536734693,1209190962,12091,09840764477153325533
753895,208,"Lafayette, IN",msa,IN,28.0,LAFAYETTE,47904,TIPPECANOE,40.4158592023256,-86.8900224627907,1815722342,18157,09805212993911550457
753899,2,"Los Angeles, CA",msa,CA,39.0,LOS ANGELES,94929,LOS ANGELES,37.9863072904762,-122.55948645873018,0604192200,06041,09260974727624595849
753905,604,"Newport, OR",msa,OR,99.0,NEWPORT,97350,CLATSOP,44.555662528571425,-122.93063740714285,4104391904,41043,06107003858569160703
753906,73,"North Port, FL",msa,FL,84.0,NORTH PORT,32578,SARASOTA,30.529779663265312,-86.56640536734693,1209190962,12091,09840764477153325533
753912,398,"Pinehurst, NC",msa,NC,47.0,PINEHURST,27817,CARTERET,35.505107515384616,-76.9124998923077,3701390664,37013,09921217215186713781
753915,388,"Salem, OH",msa,OH,54.0,SALEM,45362,LAWRENCE,40.116589942857146,-84.61242405714286,3903701294,39037,09817824436034892991
753917,124,"Santa Maria, CA",msa,CA,37.0,SANTA MARIA,96119,KERN,40.4352536,-120.5781354111111,0603591820,06035,09267728001823725801
753924,55,"Urban Honolulu, HI",msa,HI,56.0,URBAN HONOLULU,96821,HONOLULU,21.387488787878784,-157.96005086818187,1500390810,15003,08935253800460533075
845158,74,"Dayton, OH",msa,OH,25.0,DAYTON,45362,LAWRENCE,40.116589942857146,-84.61242405714286,3903701294,39037,09817824436034892991
845159,86,"Poughkeepsie, NY",msa,NY,57.0,POUGHKEEPSIE,11770,JEFFERSON,40.82983666857143,-73.07775027584415,3610310000,36103,09937271675888165403
845160,198,"Prescott Valley, AZ",msa,AZ,72.0,PRESCOTT VALLEY,86053,MARICOPA,35.51505624871795,-111.63733964358974,0400593519,04005,09741971041521842387
845162,535,"Granbury, TX",msa,TX,72.0,GRANBURY,76311,RUSK,33.920339879545445,-98.54643697045456,4848594215,48485,09679116401234704717
845164,211,"Lebanon, NH",msa,NH,38.0,LEBANON,3756,GRAFTON,43.8354527892857,-71.91003918928571,3300941300,33009,05527221240203394167
845167,296,"Ottawa, IL",msa,IL,44.0,OTTAWA,61027,SAINT CLAIR,42.32176726153846,-89.65463726153845,1717724413,17177,09802203861794528147
